NORAD_CAT_ID,OBJECT_NAME,OBJECT_TYPE,EPOCH,MEAN_MOTION,ECCENTRICITY,INCLINATION,RA_OF_ASC_NODE,ARG_OF_PERICENTER,MEAN_ANOMALY,BSTAR,MEAN_MOTION_DOT,MEAN_MOTION_DDOT,TLE_LINE0,TLE_LINE1,TLE_LINE2,SEMIMAJOR_AXIS,PERIOD,APOGEE,PERIGEE,DECAYED
49136.0,STARLINK-3084,PAYLOAD,2023-01-18 11:35:27,14.98345453,0.0002996999999999,70.0024,284.4412,266.60400000000004,93.4776,0.0011905999999999,0.00014147,0.0,0 STARLINK-3084,1 49136U 21082G   23018.48296253  .00014147  00000-0  11906-2 0  9995,2 49136  70.0024 284.4412 0002997 266.6040  93.4776 14.98345453 74793,6950.145,96.106,574.0930000000001,569.927,0.0
49136.0,STARLINK-3084,PAYLOAD,2023-01-18 21:12:15,14.98351385,0.0003241,70.0016,283.4311,266.7482,93.3306,0.00088382,0.00010474,0.0,0 STARLINK-3084,1 49136U 21082G   23018.88351687  .00010474  00000-0  88382-3 0  9994,2 49136  70.0016 283.4311 0003241 266.7482  93.3306 14.98351385 74851,6950.127,96.106,574.244,569.739,0.0
49136.0,STARLINK-3084,PAYLOAD,2023-01-19 03:36:47,14.98363521,0.0003002,70.0022,282.7585,269.9072,90.1743,0.0010618,0.0001261,0.0,0 STARLINK-3084,1 49136U 21082G   23019.15055103  .00012610  00000-0  10618-2 0  9999,2 49136  70.0022 282.7585 0003002 269.9072  90.1743 14.98363521 74897,6950.089,96.105,574.0409999999999,569.868,0.0
49136.0,STARLINK-3084,PAYLOAD,2023-01-19 21:14:16,14.98340512,0.0003443,70.0016,280.9064,279.6254,80.4516,0.00022513,2.595e-05,0.0,0 STARLINK-3084,1 49136U 21082G   23019.88491104  .00002595  00000-0  22513-3 0  9993,2 49136  70.0016 280.9064 0003443 279.6254  80.4516 14.98340512 75000,6950.16,96.106,574.418,569.632,0.0
49136.0,STARLINK-3084,PAYLOAD,2023-01-20 10:03:20,14.98336358,0.0003023,70.0026,279.5607,272.3198,87.7615,0.00040861,4.787e-05,0.0,0 STARLINK-3084,1 49136U 21082G   23020.41899056  .00004787  00000-0  40861-3 0  9993,2 49136  70.0026 279.5607 0003023 272.3198  87.7615 14.98336358 75080,6950.173000000001,96.107,574.139,569.937,0.0
49136.0,STARLINK-3084,PAYLOAD,2023-01-20 22:52:25,14.98329115,0.0002719,70.0029,278.2144,270.2297,89.855,-9.3478e-05,-1.208e-05,0.0,0 STARLINK-3084,1 49136U 21082G   23020.95307489 -.00001208  00000-0 -93478-4 0  9996,2 49136  70.0029 278.2144 0002719 270.2297  89.8550 14.98329115 75166,6950.196,96.107,573.95,570.1709999999999,0.0
49136.0,STARLINK-3084,PAYLOAD,2023-01-22 02:06:42,14.98338326,0.0002934,70.0015,275.3516,272.5125,87.5699,0.0004492,5.272e-05,0.0,0 STARLINK-3084,1 49136U 21082G   23022.08799361  .00005272  00000-0  44920-3 0  9996,2 49136  70.0015 275.3516 0002934 272.5125  87.5699 14.98338326 75338,6950.167,96.106,574.071,569.993,0.0
49136.0,STARLINK-3084,PAYLOAD,2023-01-22 18:08:04,14.98323289,0.0002828,70.0008,273.6685,269.5278,90.5557,0.00013283,1.492e-05,0.0,0 STARLINK-3084,1 49136U 21082G   23022.75560226  .00001492  00000-0  13283-3 0  9994,2 49136  70.0008 273.6685 0002828 269.5278  90.5557 14.98323289 75435,6950.214,96.107,574.044,570.113,0.0
49136.0,STARLINK-3084,PAYLOAD,2023-01-23 02:08:43,14.98335175,0.0002987,70.001,272.8262,267.3842,92.6975,0.00026866,3.114e-05,0.0,0 STARLINK-3084,1 49136U 21082G   23023.08939648  .00003114  00000-0  26866-3 0  9993,2 49136  70.0010 272.8262 0002987 267.3842  92.6975 14.98335175 75488,6950.177,96.107,574.118,569.966,0.0
49136.0,STARLINK-3084,PAYLOAD,2023-01-24 02:10:44,14.98340935,0.0002842999999999,70.001,270.3019,262.3705,97.7131,0.00033874,3.952e-05,0.0,0 STARLINK-3084,1 49136U 21082G   23024.09079368  .00003952  00000-0  33874-3 0  9996,2 49136  70.0010 270.3019 0002843 262.3705  97.7131 14.98340935 75632,6950.159000000001,96.106,574.0,570.048,0.0
49136.0,STARLINK-3084,PAYLOAD,2023-01-24 19:48:13,14.98329414,0.0002851,70.0008,268.4509,257.709,102.375,0.00018989,2.173e-05,0.0,0 STARLINK-3084,1 49136U 21082G   23024.82515737  .00002173  00000-0  18989-3 0  9996,2 49136  70.0008 268.4509 0002851 257.7090 102.3750 14.98329414 75746,6950.195,96.107,574.0409999999999,570.078,0.0
49136.0,STARLINK-3084,PAYLOAD,2023-01-25 10:13:26,14.98331325,0.0002812,70.0012,266.9366,263.7851,96.2988,7.036899999999999e-05,7.47e-06,0.0,0 STARLINK-3084,1 49136U 21082G   23025.42599565  .00000747  00000-0  70369-4 0  9990,2 49136  70.0012 266.9366 0002812 263.7851  96.2988 14.98331325 75832,6950.189,96.107,574.008,570.099,0.0
49136.0,STARLINK-3084,PAYLOAD,2023-01-25 15:01:50,14.98317814,0.000287,70.0011,266.4318,264.9979,95.0853,0.00051732,6.083e-05,0.0,0 STARLINK-3084,1 49136U 21082G   23025.62628370  .00006083  00000-0  51732-3 0  9990,2 49136  70.0011 266.4318 0002870 264.9979  95.0853 14.98317814 75869,6950.231,96.108,574.09,570.101,0.0
49136.0,STARLINK-3084,PAYLOAD,2023-01-25 19:50:15,14.98318803,0.0002853999999999,70.0011,265.9269,263.4175,96.6659,0.00050463,5.932e-05,0.0,0 STARLINK-3084,1 49136U 21082G   23025.82656405  .00005932  00000-0  50463-3 0  9994,2 49136  70.0011 265.9269 0002854 263.4175  96.6659 14.98318803 75895,6950.228,96.108,574.076,570.109,0.0
49136.0,STARLINK-3084,PAYLOAD,2023-01-26 02:14:46,14.98338088,0.0002883,70.0003,265.2526,263.5931,96.49,0.00011551,1.286e-05,0.0,0 STARLINK-3084,1 49136U 21082G   23026.09359211  .00001286  00000-0  11551-3 0  9992,2 49136  70.0003 265.2526 0002883 263.5931  96.4900 14.98338088 75937,6950.168000000001,96.106,574.0369999999999,570.029,0.0
49136.0,STARLINK-3084,PAYLOAD,2023-01-26 23:04:31,14.9833331,0.0002943,70.0,263.0645,265.8653,94.217,0.00011878,1.325e-05,0.0,0 STARLINK-3084,1 49136U 21082G   23026.96147390  .00001325  00000-0  11878-3 0  9997,2 49136  70.0000 263.0645 0002943 265.8653  94.2170 14.98333310 76068,6950.183000000001,96.107,574.0930000000001,570.002,0.0
49136.0,STARLINK-3084,PAYLOAD,2023-01-27 02:16:47,14.98335499,0.0002953999999999,69.9999,262.7276,267.018,93.0641,0.00013621,1.533e-05,0.0,0 STARLINK-3084,1 49136U 21082G   23027.09499183  .00001533  00000-0  13621-3 0  9991,2 49136  69.9999 262.7276 0002954 267.0180  93.0641 14.98335499 76081,6950.176,96.107,574.094,569.988,0.0
49136.0,STARLINK-3084,PAYLOAD,2023-01-27 21:30:24,14.9832969,0.0002969,69.9997,260.7074,269.3184,90.7635,0.00012809,1.436e-05,0.0,0 STARLINK-3084,1 49136U 21082G   23027.89611596  .00001436  00000-0  12809-3 0  9992,2 49136  69.9997 260.7074 0002969 269.3184  90.7635 14.98329690 76205,6950.194,96.107,574.122,569.995,0.0
49136.0,STARLINK-3084,PAYLOAD,2023-01-28 00:42:40,14.98333805,0.0002934,69.9999,260.3702,270.3495,89.7328,9.445e-05,1.034e-05,0.0,0 STARLINK-3084,1 49136U 21082G   23028.02963347  .00001034  00000-0  94450-4 0  9999,2 49136  69.9999 260.3702 0002934 270.3495  89.7328 14.98333805 76222,6950.181,96.107,574.085,570.007,0.0
49136.0,STARLINK-3084,PAYLOAD,2023-01-28 21:32:25,14.98329165,0.000292,69.9997,258.1822,270.6996,89.3828,3.1354e-05,2.81e-06,0.0,0 STARLINK-3084,1 49136U 21082G   23028.89751690  .00000281  00000-0  31354-4 0  9997,2 49136  69.9997 258.1822 0002920 270.6996  89.3828 14.98329165 76351,6950.195,96.107,574.09,570.031,0.0
49136.0,STARLINK-3084,PAYLOAD,2023-01-29 21:34:26,14.98329812,0.0002814,70.0,255.6577,269.4961,90.5875,4.6553e-05,4.63e-06,0.0,0 STARLINK-3084,1 49136U 21082G   23029.89891559  .00000463  00000-0  46553-4 0  9996,2 49136  70.0000 255.6577 0002814 269.4961  90.5875 14.98329812 76500,6950.193,96.107,574.014,570.103,0.0
49136.0,STARLINK-3084,PAYLOAD,2023-01-30 00:46:42,14.98329961,0.0002849,69.9999,255.321,269.9228,90.1604,4.2e-05,4.08e-06,0.0,0 STARLINK-3084,1 49136U 21082G   23030.03243559  .00000408  00000-0  42000-4 0  9997,2 49136  69.9999 255.3210 0002849 269.9228  90.1604 14.98329961 76527,6950.193,96.107,574.038,570.078,0.0
49136.0,STARLINK-3084,PAYLOAD,2023-01-30 21:36:26,14.9833475,0.0002911,69.9998,253.133,269.9696,90.1129,9.3203e-05,1.019e-05,0.0,0 STARLINK-3084,1 49136U 21082G   23030.90031033  .00001019  00000-0  93203-4 0  9995,2 49136  69.9998 253.1330 0002911 269.9696  90.1129 14.98334750 76652,6950.178,96.107,574.066,570.02,0.0
49136.0,STARLINK-3084,PAYLOAD,2023-01-30 23:12:34,14.98335154,0.0002902,69.9998,252.9646,270.0261,90.0565,9.7094e-05,1.066e-05,0.0,0 STARLINK-3084,1 49136U 21082G   23030.96706984  .00001066  00000-0  97094-4 0  9999,2 49136  69.9998 252.9646 0002902 270.0261  90.0565 14.98335154 76663,6950.177,96.107,574.059,570.025,0.0
49136.0,STARLINK-3084,PAYLOAD,2023-01-31 00:48:42,14.98335713,0.0002915,69.9997,252.7961,270.3819,89.7006,0.0001009,1.111e-05,0.0,0 STARLINK-3084,1 49136U 21082G   23031.03382921  .00001111  00000-0  10090-3 0  9990,2 49136  69.9997 252.7961 0002915 270.3819  89.7006 14.98335713 76673,6950.175,96.107,574.066,570.014,0.0
49136.0,STARLINK-3084,PAYLOAD,2023-02-01 00:50:43,14.98333624,0.0002919,69.9997,250.2713,270.6417,89.4408,6.8098e-05,7.2e-06,0.0,0 STARLINK-3084,1 49136U 21082G   23032.03522926  .00000720  00000-0  68098-4 0  9999,2 49136  69.9997 250.2713 0002919 270.6417  89.4408 14.98333624 76821,6950.182,96.107,574.075,570.018,0.0
49136.0,STARLINK-3084,PAYLOAD,2023-02-01 13:39:48,14.98330871,0.000282,70.0,248.9246,272.6196,87.4641,-1.4613e-06,-1.1e-06,0.0,0 STARLINK-3084,1 49136U 21082G   23032.56931217 -.00000110  00000-0 -14613-5 0  9994,2 49136  70.0000 248.9246 0002820 272.6196  87.4641 14.98330871 76908,6950.19,96.107,574.015,570.095,0.0
49136.0,STARLINK-3084,PAYLOAD,2023-02-02 13:41:48,14.98341108,0.0002884,69.9994,246.3999,270.8708,89.212,0.00012071,1.348e-05,0.0,0 STARLINK-3084,1 49136U 21082G   23033.57070020  .00001348  00000-0  12071-3 0  9998,2 49136  69.9994 246.3999 0002884 270.8708  89.2120 14.98341108 77057,6950.159,96.106,574.028,570.019,0.0
49136.0,STARLINK-3084,PAYLOAD,2023-02-03 00:54:43,14.98354497,0.0003077,70.0004,245.2209,270.133,89.9477,0.00032437,3.782e-05,0.0,0 STARLINK-3084,1 49136U 21082G   23034.03800056  .00003782  00000-0  32437-3 0  9992,2 49136  70.0004 245.2209 0003077 270.1330  89.9477 14.98354497 77128,6950.117,96.105,574.121,569.844,0.0
